{"type": "FeatureCollection", "features": [ {"type": "Feature", "properties": {"norad_id": 35480, "name": "IRIDIUM 33 DEB", "group": "iridium-33-debris", "lat": 34.31535803689917, "lon": 24.772572625685513, "alt_km": 717.0490351551862, "timestamp": "2025-12-18T19:29:52.927965+00:00", "meta": {"OBJECT_NAME": "IRIDIUM 33 DEB", "OBJECT_ID": "1997-051QA", "EPOCH": "2025-12-15T08:30:57.118464", "MEAN_MOTION": 14.49774703, "ECCENTRICITY": 0.00160032, "INCLINATION": 86.3571, "RA_OF_ASC_NODE": 23.7786, "ARG_OF_PERICENTER": 97.0457, "MEAN_ANOMALY": 263.2568, "EPHEMERIS_TYPE": 0, "CLASSIFICATION_TYPE": "U", "NORAD_CAT_ID": 35480, "ELEMENT_SET_NO": 999, "REV_AT_EPOCH": 87069, "BSTAR": 0.00045738518, "MEAN_MOTION_DOT": 1.785e-05, "MEAN_MOTION_DDOT": 0}, "tle": {"line1": "1 35480U 97051QA  25349.35482776  .00001785  00000+0  45739-3 0  9998", "line2": "2 35480  86.3571  23.7786 0016003  97.0457 263.2568 14.49774703870695"}}, "geometry": {"type": "Point", "coordinates": [24.772572625685513, 34.31535803689917]}}, {"type": "Feature", "properties": {"norad_id": 35484, "name": "IRIDIUM 33 DEB", "group": "iridium-33-debris", "lat": -14.47113825744625, "lon": 170.84539659189372, "alt_km": 573.8753195429454, "timestamp": "2025-12-18T19:29:52.927985+00:00", "meta": {"OBJECT_NAME": "IRIDIUM 33 DEB", "OBJECT_ID": "1997-051QE", "EPOCH": "2025-12-13T07:15:48.307680", "MEAN_MOTION": 14.98714194, "ECCENTRICITY": 0.00237352, "INCLINATION": 86.3615, "RA_OF_ASC_NODE": 352.4822, "ARG_OF_PERICENTER": 123.3819, "MEAN_ANOMALY": 236.9688, "EPHEMERIS_TYPE": 0, "CLASSIFICATION_TYPE": "U", "NORAD_CAT_ID": 35484, "ELEMENT_SET_NO": 999, "REV_AT_EPOCH": 62024, "BSTAR": 0.0048114888, "MEAN_MOTION_DOT": 0.00058609, "MEAN_MOTION_DDOT": 0}, "tle": {"line1": "1 35484U 97051QE  25347.30264245  .00058609  00000+0  48115-2 0  9991", "line2": "2 35484  86.3615 352.4822 0023735 123.3819 236.9688 14.98714194620242"}}, "geometry": {"type": "Point", "coordinates": [170.84539659189372, -14.47113825744625]}}, {"type": "Feature", "properties": {"norad_id": 35488, "name": "IRIDIUM 33 DEB", "group": "iridium-33-debris", "lat": -43.048025096120185, "lon": -65.36540262002698, "alt_km": 617.5629799708713, "timestamp": "2025-12-18T19:29:52.928001+00:00", "meta": {"OBJECT_NAME": "IRIDIUM 33 DEB", "OBJECT_ID": "1997-051QJ", "EPOCH": "2025-12-17T14:32:45.548736", "MEAN_MOTION": 14.83180169, "ECCENTRICITY": 0.00292353, "INCLINATION": 86.3235, "RA_OF_ASC_NODE": 298.6342, "ARG_OF_PERICENTER": 27.0336, "MEAN_ANOMALY": 333.2402, "EPHEMERIS_TYPE": 0, "CLASSIFICATION_TYPE": "U", "NORAD_CAT_ID": 35488, "ELEMENT_SET_NO": 999, "REV_AT_EPOCH": 88338, "BSTAR": 0.001310248, "MEAN_MOTION_DOT": 0.00010803, "MEAN_MOTION_DDOT": 0}, "tle": {"line1": "1 35488U 97051QJ  25351.60608274  .00010803  00000+0  13102-2 0  9999", "line2": "2 35488  86.3235 298.6342 0029235  27.0336 333.2402 14.83180169883381"}}, "geometry": {"type": "Point", "coordinates": [-65.36540262002698, -43.048025096120185]}}, {"type": "Feature", "properties": {"norad_id": 35616, "name": "IRIDIUM 33 DEB", "group": "iridium-33-debris", "lat": 86.26367292716841, "lon": 60.53879787538081, "alt_km": 611.0766842732155, "timestamp": "2025-12-18T19:29:52.928017+00:00", "meta": {"OBJECT_NAME": "IRIDIUM 33 DEB", "OBJECT_ID": "1997-051QN", "EPOCH": "2025-12-18T06:07:57.203616", "MEAN_MOTION": 14.81951601, "ECCENTRICITY": 0.00109465, "INCLINATION": 86.3538, "RA_OF_ASC_NODE": 343.2468, "ARG_OF_PERICENTER": 144.5331, "MEAN_ANOMALY": 215.6621, "EPHEMERIS_TYPE": 0, "CLASSIFICATION_TYPE": "U", "NORAD_CAT_ID": 35616, "ELEMENT_SET_NO": 999, "REV_AT_EPOCH": 87656, "BSTAR": 0.0015111725, "MEAN_MOTION_DOT": 0.00012018, "MEAN_MOTION_DDOT": 0}, "tle": {"line1": "1 35616U 97051QN  25352.25552319  .00012018  00000+0  15112-2 0  9995", "line2": "2 35616  86.3538 343.2468 0010946 144.5331 215.6621 14.81951601876568"}}, "geometry": {"type": "Point", "coordinates": [60.53879787538081, 86.26367292716841]}}, {"type": "Feature", "properties": {"norad_id": 35618, "name": "IRIDIUM 33 DEB", "group": "iridium-33-debris", "lat": -70.61790078156794, "lon": -19.623478346440724, "alt_km": 718.9418366979444, "timestamp": "2025-12-18T19:29:52.928034+00:00", "meta": {"OBJECT_NAME": "IRIDIUM 33 DEB", "OBJECT_ID": "1997-051QQ", "EPOCH": "2025-12-13T19:06:39.662496", "MEAN_MOTION": 14.52305973, "ECCENTRICITY": 0.00288889, "INCLINATION": 86.3427, "RA_OF_ASC_NODE": 353.0427, "ARG_OF_PERICENTER": 17.6332, "MEAN_ANOMALY": 342.5869, "EPHEMERIS_TYPE": 0, "CLASSIFICATION_TYPE": "U", "NORAD_CAT_ID": 35618, "ELEMENT_SET_NO": 999, "REV_AT_EPOCH": 65409, "BSTAR": 0.0005678553, "MEAN_MOTION_DOT": 2.341e-05, "MEAN_MOTION_DDOT": 0}, "tle": {"line1": "1 35618U 97051QQ  25347.79629239  .00002341  00000+0  56786-3 0  9997", "line2": "2 35618  86.3427 353.0427 0028888  17.6332 342.5869 14.52305973654095"}}, "geometry": {"type": "Point", "coordinates": [-19.623478346440724, -70.61790078156794]}}, {"type": "Feature", "properties": {"norad_id": 35620, "name": "IRIDIUM 33 DEB", "group": "iridium-33-debris", "lat": -35.39233733376535, "lon": -147.67935707459074, "alt_km": 761.9961852205543, "timestamp": "2025-12-18T19:29:52.928054+00:00", "meta": {"OBJECT_NAME": "IRIDIUM 33 DEB", "OBJECT_ID": "1997-051QS", "EPOCH": "2025-12-18T01:17:45.492864", "MEAN_MOTION": 14.38221868, "ECCENTRICITY": 0.01397902, "INCLINATION": 86.3894, "RA_OF_ASC_NODE": 215.2116, "ARG_OF_PERICENTER": 241.3085, "MEAN_ANOMALY": 117.4003, "EPHEMERIS_TYPE": 0, "CLASSIFICATION_TYPE": "U", "NORAD_CAT_ID": 35620, "ELEMENT_SET_NO": 999, "REV_AT_EPOCH": 60042, "BSTAR": 0.0036610812, "MEAN_MOTION_DOT": 0.00012487, "MEAN_MOTION_DDOT": 0}, "tle": {"line1": "1 35620U 97051QS  25352.05399876  .00012487  00000+0  36611-2 0  9992", "line2": "2 35620  86.3894 215.2116 0139790 241.3085 117.4003 14.38221868600427"}}, "geometry": {"type": "Point", "coordinates": [-147.67935707459074, -35.39233733376535]}}, {"type": "Feature", "properties": {"norad_id": 35622, "name": "IRIDIUM 33 DEB", "group": "iridium-33-debris", "lat": 70.38017350089046, "lon": -88.65172769900204, "alt_km": 545.2015895013592, "timestamp": "2025-12-18T19:29:52.928091+00:00", "meta": {"OBJECT_NAME": "IRIDIUM 33 DEB", "OBJECT_ID": "1997-051QU", "EPOCH": "2025-12-14T12:14:43.972224", "MEAN_MOTION": 15.04969242, "ECCENTRICITY": 0.00054886, "INCLINATION": 86.2028, "RA_OF_ASC_NODE": 262.7313, "ARG_OF_PERICENTER": 323.1514, "MEAN_ANOMALY": 209.8665, "EPHEMERIS_TYPE": 0, "CLASSIFICATION_TYPE": "U", "NORAD_CAT_ID": 35622, "ELEMENT_SET_NO": 999, "REV_AT_EPOCH": 87386, "BSTAR": 0.0048535985, "MEAN_MOTION_DOT": 0.00069411, "MEAN_MOTION_DDOT": 0}, "tle": {"line1": "1 35622U 97051QU  25348.51023116  .00069411  00000+0  48536-2 0  9999", "line2": "2 35622  86.2028 262.7313 0005488 323.1514 209.8665 15.04969242873864"}}, "geometry": {"type": "Point", "coordinates": [-88.65172769900204, 70.38017350089046]}}, {"type": "Feature", "properties": {"norad_id": 35628, "name": "IRIDIUM 33 DEB", "group": "iridium-33-debris", "lat": 18.956473708255164, "lon": -174.88672920612404, "alt_km": 675.3515228739416, "timestamp": "2025-12-18T19:29:52.928109+00:00", "meta": {"OBJECT_NAME": "IRIDIUM 33 DEB", "OBJECT_ID": "1997-051RA", "EPOCH": "2025-12-18T07:18:45.213408", "MEAN_MOTION": 14.6766102, "ECCENTRICITY": 0.00098417, "INCLINATION": 86.3567, "RA_OF_ASC_NODE": 6.5937, "ARG_OF_PERICENTER": 321.9777, "MEAN_ANOMALY": 38.0742, "EPHEMERIS_TYPE": 0, "CLASSIFICATION_TYPE": "U", "NORAD_CAT_ID": 35628, "ELEMENT_SET_NO": 999, "REV_AT_EPOCH": 86528, "BSTAR": 0.0011340632, "MEAN_MOTION_DOT": 6.475e-05, "MEAN_MOTION_DDOT": 0}, "tle": {"line1": "1 35628U 97051RA  25352.30468997  .00006475  00000+0  11341-2 0  9992", "line2": "2 35628  86.3567   6.5937 0009841 321.9777  38.0742 14.67661020865285"}}, "geometry": {"type": "Point", "coordinates": [-174.88672920612404, 18.956473708255164]}}, {"type": "Feature", "properties": {"norad_id": 35631, "name": "IRIDIUM 33 DEB", "group": "iridium-33-debris", "lat": -26.539267794581576, "lon": 16.54281635117437, "alt_km": 748.1201992241267, "timestamp": "2025-12-18T19:29:52.928126+00:00", "meta": {"OBJECT_NAME": "IRIDIUM 33 DEB", "OBJECT_ID": "1997-051RD", "EPOCH": "2025-12-17T02:23:33.513216", "MEAN_MOTION": 14.47323174, "ECCENTRICITY": 0.00191499, "INCLINATION": 86.3669, "RA_OF_ASC_NODE": 19.0985, "ARG_OF_PERICENTER": 104.9158, "MEAN_ANOMALY": 310.5558, "EPHEMERIS_TYPE": 0, "CLASSIFICATION_TYPE": "U", "NORAD_CAT_ID": 35631, "ELEMENT_SET_NO": 999, "REV_AT_EPOCH": 87260, "BSTAR": 0.00028519596, "MEAN_MOTION_DOT": 1.066e-05, "MEAN_MOTION_DDOT": 0}, "tle": {"line1": "1 35631U 97051RD  25351.09969344  .00001066  00000+0  28520-3 0  9992", "line2": "2 35631  86.3669  19.0985 0019149 104.9158 310.5558 14.47323174872608"}}, "geometry": {"type": "Point", "coordinates": [16.54281635117437, -26.539267794581576]}}, {"type": "Feature", "properties": {"norad_id": 35680, "name": "IRIDIUM 33 DEB", "group": "iridium-33-debris", "lat": 86.00585098386077, "lon": 96.34823803040906, "alt_km": 921.10410604142, "timestamp": "2025-12-18T19:29:52.928142+00:00", "meta": {"OBJECT_NAME": "IRIDIUM 33 DEB", "OBJECT_ID": "1997-051RJ", "EPOCH": "2025-12-17T20:16:19.922592", "MEAN_MOTION": 14.21000805, "ECCENTRICITY": 0.01505036, "INCLINATION": 86.1025, "RA_OF_ASC_NODE": 19.2625, "ARG_OF_PERICENTER": 262.1515, "MEAN_ANOMALY": 279.7609, "EPHEMERIS_TYPE": 0, "CLASSIFICATION_TYPE": "U", "NORAD_CAT_ID": 35680, "ELEMENT_SET_NO": 999, "REV_AT_EPOCH": 60773, "BSTAR": 0.0028027984, "MEAN_MOTION_DOT": 6.829e-05, "MEAN_MOTION_DDOT": 0}, "tle": {"line1": "1 35680U 97051RJ  25351.84467503  .00006829  00000+0  28028-2 0  9993", "line2": "2 35680  86.1025  19.2625 0150503 262.1515 279.7609 14.21000805607731"}}, "geometry": {"type": "Point", "coordinates": [96.34823803040906, 86.00585098386077]}}]}